{"type": "FeatureCollection", "features": [ {"type": "Feature", "properties": {"norad_id": 44804, "name": "CARTOSAT-3", "group": "resource", "lat": 74.02832730800226, "lon": -94.17958139946859, "alt_km": 496.2829104497305, "timestamp": "2025-12-25T03:55:55.964056+00:00", "meta": {"OBJECT_NAME": "CARTOSAT-3", "OBJECT_ID": "2019-081A", "EPOCH": "2025-12-24T19:34:22.560096", "MEAN_MOTION": 15.19250985, "ECCENTRICITY": 0.001373, "INCLINATION": 97.4564, "RA_OF_ASC_NODE": 58.2443, "ARG_OF_PERICENTER": 45.471, "MEAN_ANOMALY": 314.7644, "EPHEMERIS_TYPE": 0, "CLASSIFICATION_TYPE": "U", "NORAD_CAT_ID": 44804, "ELEMENT_SET_NO": 999, "REV_AT_EPOCH": 33699, "BSTAR": 0.00019747, "MEAN_MOTION_DOT": 4.103e-05, "MEAN_MOTION_DDOT": 0}, "tle": {"line1": "1 44804U 19081A   25358.81553889  .00004103  00000+0  19747-3 0  9997", "line2": "2 44804  97.4564  58.2443 0013730  45.4710 314.7644 15.19250985336992"}}, "geometry": {"type": "Point", "coordinates": [-94.17958139946859, 74.02832730800226]}}, {"type": "Feature", "properties": {"norad_id": 44819, "name": "GAOFEN-12 01", "group": "resource", "lat": -71.50886759127529, "lon": 29.358160300301797, "alt_km": 634.9909302533333, "timestamp": "2025-12-25T03:55:55.964067+00:00", "meta": {"OBJECT_NAME": "GAOFEN-12 01", "OBJECT_ID": "2019-082A", "EPOCH": "2025-12-24T21:46:29.716896", "MEAN_MOTION": 14.8067083, "ECCENTRICITY": 0.0002194, "INCLINATION": 97.8125, "RA_OF_ASC_NODE": 4.8689, "ARG_OF_PERICENTER": 179.3356, "MEAN_ANOMALY": 180.7859, "EPHEMERIS_TYPE": 0, "CLASSIFICATION_TYPE": "U", "NORAD_CAT_ID": 44819, "ELEMENT_SET_NO": 999, "REV_AT_EPOCH": 32830, "BSTAR": 6.7235e-05, "MEAN_MOTION_DOT": 4.66e-06, "MEAN_MOTION_DDOT": 0}, "tle": {"line1": "1 44819U 19082A   25358.90728839  .00000466  00000+0  67235-4 0  9997", "line2": "2 44819  97.8125   4.8689 0002194 179.3356 180.7859 14.80670830328306"}}, "geometry": {"type": "Point", "coordinates": [29.358160300301797, -71.50886759127529]}}, {"type": "Feature", "properties": {"norad_id": 44873, "name": "CSG-1", "group": "resource", "lat": 73.61237542898716, "lon": 28.399046512236737, "alt_km": 614.5030091437966, "timestamp": "2025-12-25T03:55:55.964077+00:00", "meta": {"OBJECT_NAME": "CSG-1", "OBJECT_ID": "2019-092A", "EPOCH": "2025-12-24T19:21:42.560640", "MEAN_MOTION": 14.82159912, "ECCENTRICITY": 0.0001472, "INCLINATION": 97.8805, "RA_OF_ASC_NODE": 179.9492, "ARG_OF_PERICENTER": 85.3037, "MEAN_ANOMALY": 274.8344, "EPHEMERIS_TYPE": 0, "CLASSIFICATION_TYPE": "U", "NORAD_CAT_ID": 44873, "ELEMENT_SET_NO": 999, "REV_AT_EPOCH": 32564, "BSTAR": 6.8411e-05, "MEAN_MOTION_DOT": 4.93e-06, "MEAN_MOTION_DDOT": 0}, "tle": {"line1": "1 44873U 19092A   25358.80674260  .00000493  00000+0  68411-4 0  9992", "line2": "2 44873  97.8805 179.9492 0001472  85.3037 274.8344 14.82159912325640"}}, "geometry": {"type": "Point", "coordinates": [28.399046512236737, 73.61237542898716]}}, {"type": "Feature", "properties": {"norad_id": 46277, "name": "NEMO-HD", "group": "resource", "lat": -13.944389999488429, "lon": 59.907628232082196, "alt_km": 448.833557852402, "timestamp": "2025-12-25T03:55:55.964088+00:00", "meta": {"OBJECT_NAME": "NEMO-HD", "OBJECT_ID": "2020-061F", "EPOCH": "2025-12-24T20:11:55.274208", "MEAN_MOTION": 15.4057042, "ECCENTRICITY": 0.000108, "INCLINATION": 97.2189, "RA_OF_ASC_NODE": 57.7859, "ARG_OF_PERICENTER": 52.5514, "MEAN_ANOMALY": 307.5831, "EPHEMERIS_TYPE": 0, "CLASSIFICATION_TYPE": "U", "NORAD_CAT_ID": 46277, "ELEMENT_SET_NO": 999, "REV_AT_EPOCH": 29510, "BSTAR": 0.00028294, "MEAN_MOTION_DOT": 0.00011424, "MEAN_MOTION_DDOT": 0}, "tle": {"line1": "1 46277U 20061F   25358.84161197  .00011424  00000+0  28294-3 0  9994", "line2": "2 46277  97.2189  57.7859 0001080  52.5514 307.5831 15.40570420295108"}}, "geometry": {"type": "Point", "coordinates": [59.907628232082196, -13.944389999488429]}}, {"type": "Feature", "properties": {"norad_id": 46984, "name": "SENTINEL-6A", "group": "resource", "lat": 31.238827852596163, "lon": -59.14313103702772, "alt_km": 1338.3279951667473, "timestamp": "2025-12-25T03:55:55.964099+00:00", "meta": {"OBJECT_NAME": "SENTINEL-6A", "OBJECT_ID": "2020-086A", "EPOCH": "2025-12-24T15:55:56.857728", "MEAN_MOTION": 12.80930713, "ECCENTRICITY": 0.0007761, "INCLINATION": 66.0399, "RA_OF_ASC_NODE": 137.5413, "ARG_OF_PERICENTER": 269.4223, "MEAN_ANOMALY": 90.5903, "EPHEMERIS_TYPE": 0, "CLASSIFICATION_TYPE": "U", "NORAD_CAT_ID": 46984, "ELEMENT_SET_NO": 999, "REV_AT_EPOCH": 23797, "BSTAR": -9.0626e-06, "MEAN_MOTION_DOT": -6.3e-07, "MEAN_MOTION_DDOT": 0}, "tle": {"line1": "1 46984U 20086A   25358.66385252 -.00000063  00000+0 -90626-5 0  9995", "line2": "2 46984  66.0399 137.5413 0007761 269.4223  90.5903 12.80930713237977"}}, "geometry": {"type": "Point", "coordinates": [-59.14313103702772, 31.238827852596163]}}, {"type": "Feature", "properties": {"norad_id": 48079, "name": "GAOFEN-12 02", "group": "resource", "lat": -60.00442315413224, "lon": 7.18552624857446, "alt_km": 636.1113453081189, "timestamp": "2025-12-25T03:55:55.964110+00:00", "meta": {"OBJECT_NAME": "GAOFEN-12 02", "OBJECT_ID": "2021-026A", "EPOCH": "2025-12-24T21:43:11.603424", "MEAN_MOTION": 14.80688887, "ECCENTRICITY": 0.0003553, "INCLINATION": 97.9857, "RA_OF_ASC_NODE": 352.853, "ARG_OF_PERICENTER": 76.689, "MEAN_ANOMALY": 283.4718, "EPHEMERIS_TYPE": 0, "CLASSIFICATION_TYPE": "U", "NORAD_CAT_ID": 48079, "ELEMENT_SET_NO": 999, "REV_AT_EPOCH": 25597, "BSTAR": 7.0598e-05, "MEAN_MOTION_DOT": 4.9e-06, "MEAN_MOTION_DDOT": 0}, "tle": {"line1": "1 48079U 21026A   25358.90499541  .00000490  00000+0  70598-4 0  9998", "line2": "2 48079  97.9857 352.8530 0003553  76.6890 283.4718 14.80688887255972"}}, "geometry": {"type": "Point", "coordinates": [7.18552624857446, -60.00442315413224]}}, {"type": "Feature", "properties": {"norad_id": 48268, "name": "PLEIADES NEO 3", "group": "resource", "lat": 49.476035809457706, "lon": 62.08486738939937, "alt_km": 618.8628409956536, "timestamp": "2025-12-25T03:55:55.964120+00:00", "meta": {"OBJECT_NAME": "PLEIADES NEO 3", "OBJECT_ID": "2021-034A", "EPOCH": "2025-12-24T21:13:25.224672", "MEAN_MOTION": 14.81670607, "ECCENTRICITY": 0.0001315, "INCLINATION": 97.8943, "RA_OF_ASC_NODE": 71.1511, "ARG_OF_PERICENTER": 90.0173, "MEAN_ANOMALY": 270.119, "EPHEMERIS_TYPE": 0, "CLASSIFICATION_TYPE": "U", "NORAD_CAT_ID": 48268, "ELEMENT_SET_NO": 999, "REV_AT_EPOCH": 25184, "BSTAR": -4.6152e-05, "MEAN_MOTION_DOT": -4.15e-06, "MEAN_MOTION_DDOT": 0}, "tle": {"line1": "1 48268U 21034A   25358.88431973 -.00000415  00000+0 -46152-4 0  9997", "line2": "2 48268  97.8943  71.1511 0001315  90.0173 270.1190 14.81670607251846"}}, "geometry": {"type": "Point", "coordinates": [62.08486738939937, 49.476035809457706]}}, {"type": "Feature", "properties": {"norad_id": 49070, "name": "PLEIADES NEO 4", "group": "resource", "lat": -49.71396397119445, "lon": -117.99884104466189, "alt_km": 631.6845644110199, "timestamp": "2025-12-25T03:55:55.964133+00:00", "meta": {"OBJECT_NAME": "PLEIADES NEO 4", "OBJECT_ID": "2021-073E", "EPOCH": "2025-12-24T05:49:33.460896", "MEAN_MOTION": 14.8167211, "ECCENTRICITY": 0.00013459, "INCLINATION": 97.8946, "RA_OF_ASC_NODE": 70.5151, "ARG_OF_PERICENTER": 92.647, "MEAN_ANOMALY": 267.4897, "EPHEMERIS_TYPE": 0, "CLASSIFICATION_TYPE": "U", "NORAD_CAT_ID": 49070, "ELEMENT_SET_NO": 999, "REV_AT_EPOCH": 23546, "BSTAR": 1.7928738e-05, "MEAN_MOTION_DOT": 8.9e-07, "MEAN_MOTION_DDOT": 0}, "tle": {"line1": "1 49070U 21073E   25358.24274839  .00000089  00000+0  17929-4 0  9993", "line2": "2 49070  97.8946  70.5151 0001345  92.6470 267.4897 14.81672110235469"}}, "geometry": {"type": "Point", "coordinates": [-117.99884104466189, -49.71396397119445]}}, {"type": "Feature", "properties": {"norad_id": 49260, "name": "LANDSAT 9", "group": "resource", "lat": -49.345592797811626, "lon": -122.5822507556288, "alt_km": 709.9778146819972, "timestamp": "2025-12-25T03:55:55.964144+00:00", "meta": {"OBJECT_NAME": "LANDSAT 9", "OBJECT_ID": "2021-088A", "EPOCH": "2025-12-24T18:38:23.131104", "MEAN_MOTION": 14.57109853, "ECCENTRICITY": 0.0001116, "INCLINATION": 98.2078, "RA_OF_ASC_NODE": 66.7123, "ARG_OF_PERICENTER": 93.3243, "MEAN_ANOMALY": 266.8083, "EPHEMERIS_TYPE": 0, "CLASSIFICATION_TYPE": "U", "NORAD_CAT_ID": 49260, "ELEMENT_SET_NO": 999, "REV_AT_EPOCH": 22560, "BSTAR": 0.00010508, "MEAN_MOTION_DOT": 4.28e-06, "MEAN_MOTION_DDOT": 0}, "tle": {"line1": "1 49260U 21088A   25358.77665661  .00000428  00000+0  10508-3 0  9997", "line2": "2 49260  98.2078  66.7123 0001116  93.3243 266.8083 14.57109853225606"}}, "geometry": {"type": "Point", "coordinates": [-122.5822507556288, -49.345592797811626]}}, {"type": "Feature", "properties": {"norad_id": 51444, "name": "CSG-2", "group": "resource", "lat": -73.69194427954274, "lon": -151.44477780483996, "alt_km": 630.7800678750818, "timestamp": "2025-12-25T03:55:55.964154+00:00", "meta": {"OBJECT_NAME": "CSG-2", "OBJECT_ID": "2022-008A", "EPOCH": "2025-12-24T20:10:19.202592", "MEAN_MOTION": 14.82154907, "ECCENTRICITY": 0.0001456, "INCLINATION": 97.8804, "RA_OF_ASC_NODE": 179.9812, "ARG_OF_PERICENTER": 81.8287, "MEAN_ANOMALY": 278.3091, "EPHEMERIS_TYPE": 0, "CLASSIFICATION_TYPE": "U", "NORAD_CAT_ID": 51444, "ELEMENT_SET_NO": 999, "REV_AT_EPOCH": 21076, "BSTAR": 3.6833e-05, "MEAN_MOTION_DOT": 2.41e-06, "MEAN_MOTION_DDOT": 0}, "tle": {"line1": "1 51444U 22008A   25358.84050003  .00000241  00000+0  36833-4 0  9996", "line2": "2 51444  97.8804 179.9812 0001456  81.8287 278.3091 14.82154907210760"}}, "geometry": {"type": "Point", "coordinates": [-151.44477780483996, -73.69194427954274]}}]}